sat03840
1 03840U 69010C   20046.91400854  .00000031  00000-0  13848-3 0  9995
2 03840  80.6067  23.3238 0034904  75.1200 313.4345 12.58523084342280
